OBJECT_NAME,OBJECT_ID,EPOCH,MEAN_MOTION,ECCENTRICITY,INCLINATION,RA_OF_ASC_NODE,ARG_OF_PERICENTER,MEAN_ANOMALY,EPHEMERIS_TYPE,CLASSIFICATION_TYPE,NORAD_CAT_ID,ELEMENT_SET_NO,REV_AT_EPOCH,BSTAR,MEAN_MOTION_DOT,MEAN_MOTION_DDOT
SAUDISAT 1C (SO-50),2002-058C,2026-06-08T02:51:48.244896,14.83028039,.0075454,64.5503,157.0409,264.1381,95.1121,0,U,27607,999,26311,.15563E-3,.1176E-4,0
SAUDISAT 2,2004-025F,2026-06-07T23:05:14.423136,14.56678716,.0024008,98.5506,158.7055,327.6512,32.3212,0,U,28371,999,16440,.82276E-4,.319E-5,0
SAUDISAT 3,2007-012B,2026-06-08T03:30:47.320128,14.71420585,.0013295,98.1452,109.5413,255.2069,104.7665,0,U,31118,999,2641,.5894E-4,.314E-5,0
PISAT,2016-059B,2026-06-07T22:45:38.049120,14.68968197,.0027747,97.8178,159.7983,233.3279,126.5376,0,U,41784,999,51838,.18468E-3,.104E-4,0
FLYING LAPTOP,2017-042G,2026-06-08T04:28:38.983584,15.01085919,.0019124,97.4657,315.0688,151.1196,209.1091,0,U,42831,999,48510,.25162E-3,.3173E-4,0
SALSAT,2020-068K,2026-06-07T23:42:24.407136,15.29667638,.0008912,97.8853,161.4934,345.1768,14.9208,0,U,46495,999,31395,.28698E-3,.8175E-4,0
